{
  "type": "FeatureCollection",
  "features": [
    {
      "type": "Feature",
      "properties": {
        "norad_id": 35835,
        "name": "COSMOS 2251 DEB",
        "group": "cosmos-2251-debris",
        "lat": 30.997688449967345,
        "lon": -82.64728780853174,
        "alt_km": 747.0843177969946,
        "timestamp": "2025-12-13T07:35:41.901232+00:00",
        "meta_object_name": "COSMOS 2251 DEB",
        "meta_object_id": "1993-036ATH",
        "meta_epoch": "2025-12-11T12:02:32.949600",
        "meta_mean_motion": 13.82870055,
        "meta_eccentricity": 0.02901062,
        "meta_inclination": 74.0631,
        "meta_ra_of_asc_node": 270.5178,
        "meta_arg_of_pericenter": 52.3891,
        "meta_mean_anomaly": 310.3189,
        "meta_ephemeris_type": 0,
        "meta_classification_type": "U",
        "meta_norad_cat_id": 35835,
        "meta_element_set_no": 999,
        "meta_rev_at_epoch": 61682,
        "meta_bstar": 0.0024457377,
        "meta_mean_motion_dot": 3.663e-05,
        "meta_mean_motion_ddot": 0,
        "tle_line1": "1 35835U 93036ATH 25345.50177025  .00003663  00000+0  24457-2 0  9992",
        "tle_line2": "2 35835  74.0631 270.5178 0290106  52.3891 310.3189 13.82870055616820"
      },
      "geometry": {
        "type": "Point",
        "coordinates": [
          -82.64728780853174,
          30.997688449967345
        ]
      }
    },
    {
      "type": "Feature",
      "properties": {
        "norad_id": 35836,
        "name": "COSMOS 2251 DEB",
        "group": "cosmos-2251-debris",
        "lat": 67.4604035011255,
        "lon": -144.5574379695598,
        "alt_km": 666.710231605548,
        "timestamp": "2025-12-13T07:35:41.901241+00:00",
        "meta_object_name": "COSMOS 2251 DEB",
        "meta_object_id": "1993-036ATJ",
        "meta_epoch": "2025-12-10T18:51:50.352480",
        "meta_mean_motion": 14.70892448,
        "meta_eccentricity": 0.00244147,
        "meta_inclination": 74.0314,
        "meta_ra_of_asc_node": 176.7294,
        "meta_arg_of_pericenter": 235.542,
        "meta_mean_anomaly": 124.3445,
        "meta_ephemeris_type": 0,
        "meta_classification_type": "U",
        "meta_norad_cat_id": 35836,
        "meta_element_set_no": 999,
        "meta_rev_at_epoch": 63491,
        "meta_bstar": 0.0027962773,
        "meta_mean_motion_dot": 0.00017206,
        "meta_mean_motion_ddot": 0,
        "tle_line1": "1 35836U 93036ATJ 25344.78599945  .00017206  00000+0  27963-2 0  9994",
        "tle_line2": "2 35836  74.0314 176.7294 0024414 235.5420 124.3445 14.70892448634911"
      },
      "geometry": {
        "type": "Point",
        "coordinates": [
          -144.5574379695598,
          67.4604035011255
        ]
      }
    },
    {
      "type": "Feature",
      "properties": {
        "norad_id": 35837,
        "name": "COSMOS 2251 DEB",
        "group": "cosmos-2251-debris",
        "lat": 41.247619687392,
        "lon": 11.823018416812484,
        "alt_km": 710.6632158930888,
        "timestamp": "2025-12-13T07:35:41.901250+00:00",
        "meta_object_name": "COSMOS 2251 DEB",
        "meta_object_id": "1993-036ATK",
        "meta_epoch": "2025-12-09T22:01:37.127712",
        "meta_mean_motion": 13.63437069,
        "meta_eccentricity": 0.04220669,
        "meta_inclination": 73.7216,
        "meta_ra_of_asc_node": 212.3216,
        "meta_arg_of_pericenter": 133.5531,
        "meta_mean_anomaly": 246.304,
        "meta_ephemeris_type": 0,
        "meta_classification_type": "U",
        "meta_norad_cat_id": 35837,
        "meta_element_set_no": 999,
        "meta_rev_at_epoch": 57938,
        "meta_bstar": 0.0025074688,
        "meta_mean_motion_dot": 3.597e-05,
        "meta_mean_motion_ddot": 0,
        "tle_line1": "1 35837U 93036ATK 25343.91779083  .00003597  00000+0  25075-2 0  9992",
        "tle_line2": "2 35837  73.7216 212.3216 0422066 133.5531 246.3040 13.63437069579385"
      },
      "geometry": {
        "type": "Point",
        "coordinates": [
          11.823018416812484,
          41.247619687392
        ]
      }
    },
    {
      "type": "Feature",
      "properties": {
        "norad_id": 35839,
        "name": "COSMOS 2251 DEB",
        "group": "cosmos-2251-debris",
        "lat": -6.990932799243821,
        "lon": 144.24647946153678,
        "alt_km": 411.3453881327541,
        "timestamp": "2025-12-13T07:35:41.901259+00:00",
        "meta_object_name": "COSMOS 2251 DEB",
        "meta_object_id": "1993-036ATM",
        "meta_epoch": "2025-12-12T13:46:48.778752",
        "meta_mean_motion": 15.52258561,
        "meta_eccentricity": 0.00018316,
        "meta_inclination": 74.2061,
        "meta_ra_of_asc_node": 323.8744,
        "meta_arg_of_pericenter": 117.5128,
        "meta_mean_anomaly": 242.6274,
        "meta_ephemeris_type": 0,
        "meta_classification_type": "U",
        "meta_norad_cat_id": 35839,
        "meta_element_set_no": 999,
        "meta_rev_at_epoch": 88565,
        "meta_bstar": 0.0073362267,
        "meta_mean_motion_dot": 0.00473562,
        "meta_mean_motion_ddot": 0,
        "tle_line1": "1 35839U 93036ATM 25346.57417568  .00473562  00000+0  73362-2 0  9991",
        "tle_line2": "2 35839  74.2061 323.8744 0001831 117.5128 242.6274 15.52258561885658"
      },
      "geometry": {
        "type": "Point",
        "coordinates": [
          144.24647946153678,
          -6.990932799243821
        ]
      }
    },
    {
      "type": "Feature",
      "properties": {
        "norad_id": 35840,
        "name": "COSMOS 2251 DEB",
        "group": "cosmos-2251-debris",
        "lat": 73.34381453776716,
        "lon": -97.34762516081531,
        "alt_km": 689.8627202578618,
        "timestamp": "2025-12-13T07:35:41.901268+00:00",
        "meta_object_name": "COSMOS 2251 DEB",
        "meta_object_id": "1993-036ATN",
        "meta_epoch": "2025-12-12T04:26:56.474304",
        "meta_mean_motion": 14.37821687,
        "meta_eccentricity": 0.01162768,
        "meta_inclination": 73.9307,
        "meta_ra_of_asc_node": 159.2062,
        "meta_arg_of_pericenter": 61.7798,
        "meta_mean_anomaly": 299.5037,
        "meta_ephemeris_type": 0,
        "meta_classification_type": "U",
        "meta_norad_cat_id": 35840,
        "meta_element_set_no": 999,
        "meta_rev_at_epoch": 85283,
        "meta_bstar": 0.0026691111,
        "meta_mean_motion_dot": 8.683e-05,
        "meta_mean_motion_ddot": 0,
        "tle_line1": "1 35840U 93036ATN 25346.18537586  .00008683  00000+0  26691-2 0  9994",
        "tle_line2": "2 35840  73.9307 159.2062 0116276  61.7798 299.5037 14.37821687852835"
      },
      "geometry": {
        "type": "Point",
        "coordinates": [
          -97.34762516081531,
          73.34381453776716
        ]
      }
    },
    {
      "type": "Feature",
      "properties": {
        "norad_id": 35883,
        "name": "COSMOS 2251 DEB",
        "group": "cosmos-2251-debris",
        "lat": 57.086616263255856,
        "lon": -137.32687992681167,
        "alt_km": 706.0295368958414,
        "timestamp": "2025-12-13T07:35:41.901277+00:00",
        "meta_object_name": "COSMOS 2251 DEB",
        "meta_object_id": "1993-036ATW",
        "meta_epoch": "2025-12-12T23:34:54.404832",
        "meta_mean_motion": 14.50607241,
        "meta_eccentricity": 0.00836818,
        "meta_inclination": 74.025,
        "meta_ra_of_asc_node": 69.5692,
        "meta_arg_of_pericenter": 198.8401,
        "meta_mean_anomaly": 338.319,
        "meta_ephemeris_type": 0,
        "meta_classification_type": "U",
        "meta_norad_cat_id": 35883,
        "meta_element_set_no": 999,
        "meta_rev_at_epoch": 62389,
        "meta_bstar": 0.0005176581,
        "meta_mean_motion_dot": 2.095e-05,
        "meta_mean_motion_ddot": 0,
        "tle_line1": "1 35883U 93036ATW 25346.98257413  .00002095  00000+0  51766-3 0  9990",
        "tle_line2": "2 35883  74.0250  69.5692 0083681 198.8401 338.3190 14.50607241623896"
      },
      "geometry": {
        "type": "Point",
        "coordinates": [
          -137.32687992681167,
          57.086616263255856
        ]
      }
    },
    {
      "type": "Feature",
      "properties": {
        "norad_id": 35884,
        "name": "COSMOS 2251 DEB",
        "group": "cosmos-2251-debris",
        "lat": 29.054240014875546,
        "lon": 145.78899066617961,
        "alt_km": 735.1417815433933,
        "timestamp": "2025-12-13T07:35:41.901286+00:00",
        "meta_object_name": "COSMOS 2251 DEB",
        "meta_object_id": "1993-036ATX",
        "meta_epoch": "2025-12-09T17:00:47.209536",
        "meta_mean_motion": 14.25629404,
        "meta_eccentricity": 0.01087033,
        "meta_inclination": 73.9912,
        "meta_ra_of_asc_node": 341.4952,
        "meta_arg_of_pericenter": 129.2859,
        "meta_mean_anomaly": 231.7992,
        "meta_ephemeris_type": 0,
        "meta_classification_type": "U",
        "meta_norad_cat_id": 35884,
        "meta_element_set_no": 999,
        "meta_rev_at_epoch": 22314,
        "meta_bstar": 0.001725321,
        "meta_mean_motion_dot": 4.326e-05,
        "meta_mean_motion_ddot": 0,
        "tle_line1": "1 35884U 93036ATX 25343.70887974  .00004326  00000+0  17253-2 0  9990",
        "tle_line2": "2 35884  73.9912 341.4952 0108703 129.2859 231.7992 14.25629404223146"
      },
      "geometry": {
        "type": "Point",
        "coordinates": [
          145.78899066617961,
          29.054240014875546
        ]
      }
    }
  ]
}